{"type": "FeatureCollection", "features": [{"type": "Feature", "geometry": {"type": "Point", "coordinates": [126.9501015, 37.4550446]}, "properties": {"osm_id": 1084800604, "entrance": "yes", "level": "", "name": "", "ref": "", "door": "", "wheelchair": "yes", "access": ""}}, {"type": "Feature", "geometry": {"type": "Point", "coordinates": [126.9544847, 37.4599413]}, "properties": {"osm_id": 1613903007, "entrance": "yes", "level": "", "name": "", "ref": "", "door": "", "wheelchair": "yes", "access": ""}}, {"type": "Feature", "geometry": {"type": "Point", "coordinates": [126.9502112, 37.4581823]}, "properties": {"osm_id": 1790388362, "entrance": "yes", "level": "", "name": "", "ref": "", "door": "", "wheelchair": "yes", "access": ""}}, {"type": "Feature", "geometry": {"type": "Point", "coordinates": [126.9503199, 37.457782]}, "properties": {"osm_id": 1790388389, "entrance": "yes", "level": "", "name": "", "ref": "", "door": "", "wheelchair": "yes", "access": ""}}, {"type": "Feature", "geometry": {"type": "Point", "coordinates": [126.9526028, 37.460786]}, "properties": {"osm_id": 1790463228, "entrance": "yes", "level": "", "name": "", "ref": "", "door": "", "wheelchair": "yes", "access": ""}}, {"type": "Feature", "geometry": {"type": "Point", "coordinates": [126.9579711, 37.464359]}, "properties": {"osm_id": 1793224802, "entrance": "yes", "level": "", "name": "서울대학교 후문", "ref": "", "door": "", "wheelchair": "", "access": ""}}, {"type": "Feature", "geometry": {"type": "Point", "coordinates": [126.9537654, 37.4597151]}, "properties": {"osm_id": 2044015684, "entrance": "yes", "level": "", "name": "", "ref": "", "door": "", "wheelchair": "yes", "access": ""}}, {"type": "Feature", "geometry": {"type": "Point", "coordinates": [126.9539746, 37.4598599]}, "properties": {"osm_id": 2044015688, "entrance": "yes", "level": "", "name": "", "ref": "", "door": "", "wheelchair": "yes", "access": ""}}, {"type": "Feature", "geometry": {"type": "Point", "coordinates": [126.9533765, 37.4596768]}, "properties": {"osm_id": 2044015696, "entrance": "yes", "level": "", "name": "", "ref": "", "door": "", "wheelchair": "no", "access": ""}}, {"type": "Feature", "geometry": {"type": "Point", "coordinates": [126.9509973, 37.4589748]}, "properties": {"osm_id": 2044015745, "entrance": "yes", "level": "", "name": "", "ref": "", "door": "", "wheelchair": "yes", "access": ""}}, {"type": "Feature", "geometry": {"type": "Point", "coordinates": [126.9502006, 37.4631546]}, "properties": {"osm_id": 2395785103, "entrance": "yes", "level": "", "name": "", "ref": "", "door": "", "wheelchair": "yes", "access": ""}}, {"type": "Feature", "geometry": {"type": "Point", "coordinates": [126.9523, 37.4621149]}, "properties": {"osm_id": 2467458744, "entrance": "yes", "level": "", "name": "", "ref": "", "door": "", "wheelchair": "yes", "access": ""}}, {"type": "Feature", "geometry": {"type": "Point", "coordinates": [126.9523185, 37.4623691]}, "properties": {"osm_id": 2467458753, "entrance": "yes", "level": "", "name": "", "ref": "", "door": "", "wheelchair": "yes", "access": ""}}, {"type": "Feature", "geometry": {"type": "Point", "coordinates": [126.9502854, 37.4625309]}, "properties": {"osm_id": 2467461780, "entrance": "yes", "level": "", "name": "", "ref": "", "door": "", "wheelchair": "yes", "access": ""}}, {"type": "Feature", "geometry": {"type": "Point", "coordinates": [126.9487144, 37.4565313]}, "properties": {"osm_id": 2583216312, "entrance": "yes", "level": "", "name": "", "ref": "", "door": "", "wheelchair": "yes", "access": ""}}, {"type": "Feature", "geometry": {"type": "Point", "coordinates": [126.9533728, 37.4590472]}, "properties": {"osm_id": 3046617635, "entrance": "yes", "level": "", "name": "", "ref": "", "door": "", "wheelchair": "no", "access": ""}}, {"type": "Feature", "geometry": {"type": "Point", "coordinates": [126.9508911, 37.4572476]}, "properties": {"osm_id": 3805308076, "entrance": "yes", "level": "", "name": "", "ref": "", "door": "", "wheelchair": "yes", "access": ""}}, {"type": "Feature", "geometry": {"type": "Point", "coordinates": [126.9513465, 37.455087]}, "properties": {"osm_id": 3901595585, "entrance": "yes", "level": "", "name": "", "ref": "", "door": "", "wheelchair": "no", "access": ""}}, {"type": "Feature", "geometry": {"type": "Point", "coordinates": [126.9541655, 37.4633357]}, "properties": {"osm_id": 3902467472, "entrance": "yes", "level": "", "name": "", "ref": "", "door": "", "wheelchair": "yes", "access": ""}}, {"type": "Feature", "geometry": {"type": "Point", "coordinates": [126.9541923, 37.4635571]}, "properties": {"osm_id": 3902467478, "entrance": "yes", "level": "", "name": "", "ref": "", "door": "", "wheelchair": "yes", "access": ""}}, {"type": "Feature", "geometry": {"type": "Point", "coordinates": [126.9524465, 37.4583629]}, "properties": {"osm_id": 4332551611, "entrance": "yes", "level": "", "name": "", "ref": "", "door": "", "wheelchair": "yes", "access": ""}}, {"type": "Feature", "geometry": {"type": "Point", "coordinates": [126.9525778, 37.4583142]}, "properties": {"osm_id": 4332551614, "entrance": "yes", "level": "", "name": "", "ref": "", "door": "", "wheelchair": "", "access": ""}}, {"type": "Feature", "geometry": {"type": "Point", "coordinates": [126.952753, 37.4581959]}, "properties": {"osm_id": 4332551615, "entrance": "yes", "level": "", "name": "", "ref": "", "door": "", "wheelchair": "", "access": ""}}, {"type": "Feature", "geometry": {"type": "Point", "coordinates": [126.9528325, 37.4580104]}, "properties": {"osm_id": 4332551620, "entrance": "yes", "level": "", "name": "", "ref": "", "door": "", "wheelchair": "", "access": ""}}, {"type": "Feature", "geometry": {"type": "Point", "coordinates": [126.9520119, 37.4574389]}, "properties": {"osm_id": 4332551622, "entrance": "yes", "level": "", "name": "", "ref": "", "door": "", "wheelchair": "", "access": ""}}, {"type": "Feature", "geometry": {"type": "Point", "coordinates": [126.9548298, 37.4558023]}, "properties": {"osm_id": 4344097190, "entrance": "yes", "level": "", "name": "", "ref": "", "door": "", "wheelchair": "yes", "access": ""}}, {"type": "Feature", "geometry": {"type": "Point", "coordinates": [126.9532432, 37.4653819]}, "properties": {"osm_id": 4373702817, "entrance": "yes", "level": "", "name": "", "ref": "", "door": "", "wheelchair": "yes", "access": ""}}, {"type": "Feature", "geometry": {"type": "Point", "coordinates": [126.9525217, 37.4634516]}, "properties": {"osm_id": 4373702873, "entrance": "yes", "level": "", "name": "", "ref": "", "door": "", "wheelchair": "no", "access": ""}}, {"type": "Feature", "geometry": {"type": "Point", "coordinates": [126.9535559, 37.4632752]}, "properties": {"osm_id": 4373703131, "entrance": "yes", "level": "", "name": "", "ref": "", "door": "", "wheelchair": "no", "access": ""}}, {"type": "Feature", "geometry": {"type": "Point", "coordinates": [126.9519404, 37.4563791]}, "properties": {"osm_id": 4373965748, "entrance": "yes", "level": "", "name": "", "ref": "", "door": "", "wheelchair": "", "access": ""}}, {"type": "Feature", "geometry": {"type": "Point", "coordinates": [126.9505186, 37.4543027]}, "properties": {"osm_id": 4373965760, "entrance": "yes", "level": "", "name": "", "ref": "", "door": "", "wheelchair": "yes", "access": ""}}, {"type": "Feature", "geometry": {"type": "Point", "coordinates": [126.9537176, 37.4649029]}, "properties": {"osm_id": 4514838230, "entrance": "yes", "level": "", "name": "", "ref": "", "door": "", "wheelchair": "yes", "access": ""}}, {"type": "Feature", "geometry": {"type": "Point", "coordinates": [126.9542523, 37.4646097]}, "properties": {"osm_id": 4514838231, "entrance": "yes", "level": "", "name": "", "ref": "", "door": "", "wheelchair": "yes", "access": ""}}, {"type": "Feature", "geometry": {"type": "Point", "coordinates": [126.9523253, 37.4610839]}, "properties": {"osm_id": 4527756103, "entrance": "yes", "level": "", "name": "", "ref": "", "door": "", "wheelchair": "no", "access": ""}}, {"type": "Feature", "geometry": {"type": "Point", "coordinates": [126.9522352, 37.4610255]}, "properties": {"osm_id": 4527843425, "entrance": "yes", "level": "", "name": "", "ref": "", "door": "", "wheelchair": "yes", "access": ""}}, {"type": "Feature", "geometry": {"type": "Point", "coordinates": [126.952681, 37.4608944]}, "properties": {"osm_id": 4527843432, "entrance": "yes", "level": "", "name": "", "ref": "", "door": "", "wheelchair": "no", "access": ""}}, {"type": "Feature", "geometry": {"type": "Point", "coordinates": [126.9527271, 37.4634535]}, "properties": {"osm_id": 4527864818, "entrance": "yes", "level": "", "name": "", "ref": "", "door": "", "wheelchair": "no", "access": ""}}, {"type": "Feature", "geometry": {"type": "Point", "coordinates": [126.9527448, 37.4636738]}, "properties": {"osm_id": 4527864819, "entrance": "yes", "level": "", "name": "", "ref": "", "door": "", "wheelchair": "yes", "access": ""}}, {"type": "Feature", "geometry": {"type": "Point", "coordinates": [126.9538453, 37.4642254]}, "properties": {"osm_id": 4531515084, "entrance": "yes", "level": "", "name": "", "ref": "", "door": "", "wheelchair": "yes", "access": ""}}, {"type": "Feature", "geometry": {"type": "Point", "coordinates": [126.9536503, 37.4639241]}, "properties": {"osm_id": 4531515085, "entrance": "yes", "level": "", "name": "", "ref": "", "door": "", "wheelchair": "yes", "access": ""}}, {"type": "Feature", "geometry": {"type": "Point", "coordinates": [126.9533448, 37.4644293]}, "properties": {"osm_id": 4531517992, "entrance": "yes", "level": "", "name": "", "ref": "", "door": "", "wheelchair": "yes", "access": ""}}, {"type": "Feature", "geometry": {"type": "Point", "coordinates": [126.9526637, 37.4650991]}, "properties": {"osm_id": 4531517997, "entrance": "yes", "level": "", "name": "", "ref": "", "door": "", "wheelchair": "", "access": ""}}, {"type": "Feature", "geometry": {"type": "Point", "coordinates": [126.95364, 37.4647248]}, "properties": {"osm_id": 4531518011, "entrance": "yes", "level": "", "name": "", "ref": "", "door": "", "wheelchair": "yes", "access": ""}}, {"type": "Feature", "geometry": {"type": "Point", "coordinates": [126.9531417, 37.4645527]}, "properties": {"osm_id": 4531518017, "entrance": "yes", "level": "", "name": "", "ref": "", "door": "", "wheelchair": "no", "access": ""}}, {"type": "Feature", "geometry": {"type": "Point", "coordinates": [126.9508022, 37.4551149]}, "properties": {"osm_id": 4531601928, "entrance": "yes", "level": "", "name": "", "ref": "", "door": "", "wheelchair": "yes", "access": ""}}, {"type": "Feature", "geometry": {"type": "Point", "coordinates": [126.9505453, 37.4550891]}, "properties": {"osm_id": 4531601930, "entrance": "yes", "level": "", "name": "", "ref": "", "door": "", "wheelchair": "no", "access": ""}}, {"type": "Feature", "geometry": {"type": "Point", "coordinates": [126.949434, 37.4599264]}, "properties": {"osm_id": 4562088350, "entrance": "yes", "level": "", "name": "", "ref": "", "door": "", "wheelchair": "no", "access": ""}}, {"type": "Feature", "geometry": {"type": "Point", "coordinates": [126.9494755, 37.459734]}, "properties": {"osm_id": 4562088351, "entrance": "yes", "level": "", "name": "", "ref": "", "door": "", "wheelchair": "yes", "access": ""}}, {"type": "Feature", "geometry": {"type": "Point", "coordinates": [126.949403, 37.4592377]}, "properties": {"osm_id": 4562088352, "entrance": "yes", "level": "", "name": "", "ref": "", "door": "", "wheelchair": "yes", "access": ""}}, {"type": "Feature", "geometry": {"type": "Point", "coordinates": [126.9500912, 37.4597736]}, "properties": {"osm_id": 4562088355, "entrance": "yes", "level": "", "name": "", "ref": "", "door": "", "wheelchair": "no", "access": ""}}, {"type": "Feature", "geometry": {"type": "Point", "coordinates": [126.9501529, 37.4596211]}, "properties": {"osm_id": 4562088356, "entrance": "yes", "level": "", "name": "", "ref": "", "door": "", "wheelchair": "yes", "access": ""}}, {"type": "Feature", "geometry": {"type": "Point", "coordinates": [126.9499727, 37.4592687]}, "properties": {"osm_id": 4562088357, "entrance": "yes", "level": "", "name": "", "ref": "", "door": "", "wheelchair": "no", "access": ""}}, {"type": "Feature", "geometry": {"type": "Point", "coordinates": [126.949737, 37.4590795]}, "properties": {"osm_id": 4562088362, "entrance": "yes", "level": "", "name": "", "ref": "", "door": "", "wheelchair": "yes", "access": ""}}, {"type": "Feature", "geometry": {"type": "Point", "coordinates": [126.950245, 37.459376]}, "properties": {"osm_id": 4562088363, "entrance": "yes", "level": "", "name": "공차", "ref": "", "door": "", "wheelchair": "yes", "access": ""}}, {"type": "Feature", "geometry": {"type": "Point", "coordinates": [126.950556, 37.4595999]}, "properties": {"osm_id": 4562088364, "entrance": "yes", "level": "", "name": "", "ref": "", "door": "", "wheelchair": "no", "access": ""}}, {"type": "Feature", "geometry": {"type": "Point", "coordinates": [126.9508256, 37.4595059]}, "properties": {"osm_id": 4562088365, "entrance": "yes", "level": "", "name": "", "ref": "", "door": "", "wheelchair": "no", "access": ""}}, {"type": "Feature", "geometry": {"type": "Point", "coordinates": [126.9506725, 37.459229]}, "properties": {"osm_id": 4562088366, "entrance": "yes", "level": "", "name": "", "ref": "", "door": "", "wheelchair": "yes", "access": ""}}, {"type": "Feature", "geometry": {"type": "Point", "coordinates": [126.9506384, 37.4589747]}, "properties": {"osm_id": 4562088367, "entrance": "yes", "level": "", "name": "", "ref": "", "door": "", "wheelchair": "yes", "access": ""}}, {"type": "Feature", "geometry": {"type": "Point", "coordinates": [126.9502128, 37.4593216]}, "properties": {"osm_id": 4562088368, "entrance": "yes", "level": "", "name": "", "ref": "", "door": "", "wheelchair": "yes", "access": ""}}, {"type": "Feature", "geometry": {"type": "Point", "coordinates": [126.9503804, 37.459185]}, "properties": {"osm_id": 4562088369, "entrance": "yes", "level": "", "name": "", "ref": "", "door": "", "wheelchair": "yes", "access": ""}}, {"type": "Feature", "geometry": {"type": "Point", "coordinates": [126.9501377, 37.4590975]}, "properties": {"osm_id": 4562088370, "entrance": "yes", "level": "", "name": "", "ref": "", "door": "", "wheelchair": "no", "access": ""}}, {"type": "Feature", "geometry": {"type": "Point", "coordinates": [126.9496755, 37.4589539]}, "properties": {"osm_id": 4562088371, "entrance": "yes", "level": "", "name": "", "ref": "", "door": "", "wheelchair": "yes", "access": ""}}, {"type": "Feature", "geometry": {"type": "Point", "coordinates": [126.9493446, 37.458949]}, "properties": {"osm_id": 4562088372, "entrance": "yes", "level": "", "name": "", "ref": "", "door": "", "wheelchair": "yes", "access": ""}}, {"type": "Feature", "geometry": {"type": "Point", "coordinates": [126.9495106, 37.4589105]}, "properties": {"osm_id": 4562088373, "entrance": "yes", "level": "", "name": "", "ref": "", "door": "", "wheelchair": "yes", "access": ""}}, {"type": "Feature", "geometry": {"type": "Point", "coordinates": [126.9497796, 37.4583686]}, "properties": {"osm_id": 4562088374, "entrance": "yes", "level": "", "name": "", "ref": "", "door": "", "wheelchair": "no", "access": ""}}, {"type": "Feature", "geometry": {"type": "Point", "coordinates": [126.9500338, 37.4583287]}, "properties": {"osm_id": 4562088375, "entrance": "yes", "level": "", "name": "", "ref": "", "door": "", "wheelchair": "no", "access": ""}}, {"type": "Feature", "geometry": {"type": "Point", "coordinates": [126.949833, 37.4579492]}, "properties": {"osm_id": 4562088376, "entrance": "yes", "level": "", "name": "", "ref": "", "door": "", "wheelchair": "no", "access": ""}}, {"type": "Feature", "geometry": {"type": "Point", "coordinates": [126.9498455, 37.4577045]}, "properties": {"osm_id": 4562088378, "entrance": "yes", "level": "", "name": "", "ref": "", "door": "", "wheelchair": "no", "access": ""}}, {"type": "Feature", "geometry": {"type": "Point", "coordinates": [126.9507808, 37.4586772]}, "properties": {"osm_id": 4562088379, "entrance": "yes", "level": "", "name": "", "ref": "", "door": "", "wheelchair": "yes", "access": ""}}, {"type": "Feature", "geometry": {"type": "Point", "coordinates": [126.9510913, 37.4584575]}, "properties": {"osm_id": 4562088380, "entrance": "yes", "level": "", "name": "", "ref": "", "door": "", "wheelchair": "no", "access": ""}}, {"type": "Feature", "geometry": {"type": "Point", "coordinates": [126.9512994, 37.4584328]}, "properties": {"osm_id": 4562088381, "entrance": "yes", "level": "", "name": "", "ref": "", "door": "", "wheelchair": "yes", "access": ""}}, {"type": "Feature", "geometry": {"type": "Point", "coordinates": [126.9502681, 37.4575242]}, "properties": {"osm_id": 4562088383, "entrance": "yes", "level": "", "name": "", "ref": "", "door": "", "wheelchair": "yes", "access": ""}}, {"type": "Feature", "geometry": {"type": "Point", "coordinates": [126.951148, 37.4582608]}, "properties": {"osm_id": 4562088384, "entrance": "yes", "level": "", "name": "", "ref": "", "door": "", "wheelchair": "no", "access": ""}}, {"type": "Feature", "geometry": {"type": "Point", "coordinates": [126.9509272, 37.4580929]}, "properties": {"osm_id": 4562088385, "entrance": "yes", "level": "", "name": "", "ref": "", "door": "", "wheelchair": "yes", "access": ""}}, {"type": "Feature", "geometry": {"type": "Point", "coordinates": [126.9511503, 37.4580326]}, "properties": {"osm_id": 4562088386, "entrance": "yes", "level": "", "name": "", "ref": "", "door": "", "wheelchair": "yes", "access": ""}}, {"type": "Feature", "geometry": {"type": "Point", "coordinates": [126.9509126, 37.4575993]}, "properties": {"osm_id": 4562088387, "entrance": "yes", "level": "", "name": "", "ref": "", "door": "", "wheelchair": "yes", "access": ""}}, {"type": "Feature", "geometry": {"type": "Point", "coordinates": [126.9507516, 37.4575267]}, "properties": {"osm_id": 4562088388, "entrance": "yes", "level": "", "name": "", "ref": "", "door": "", "wheelchair": "no", "access": ""}}, {"type": "Feature", "geometry": {"type": "Point", "coordinates": [126.9494547, 37.4576046]}, "properties": {"osm_id": 4562091889, "entrance": "yes", "level": "", "name": "", "ref": "", "door": "", "wheelchair": "yes", "access": ""}}, {"type": "Feature", "geometry": {"type": "Point", "coordinates": [126.9495575, 37.4576854]}, "properties": {"osm_id": 4562091890, "entrance": "yes", "level": "", "name": "", "ref": "", "door": "", "wheelchair": "no", "access": ""}}, {"type": "Feature", "geometry": {"type": "Point", "coordinates": [126.9513625, 37.457925]}, "properties": {"osm_id": 4562091891, "entrance": "yes", "level": "", "name": "", "ref": "", "door": "", "wheelchair": "no", "access": ""}}, {"type": "Feature", "geometry": {"type": "Point", "coordinates": [126.951198, 37.4575928]}, "properties": {"osm_id": 4562091892, "entrance": "yes", "level": "", "name": "", "ref": "", "door": "", "wheelchair": "yes", "access": ""}}, {"type": "Feature", "geometry": {"type": "Point", "coordinates": [126.9515711, 37.4578247]}, "properties": {"osm_id": 4562091893, "entrance": "yes", "level": "", "name": "", "ref": "", "door": "", "wheelchair": "no", "access": ""}}, {"type": "Feature", "geometry": {"type": "Point", "coordinates": [126.9514328, 37.457532]}, "properties": {"osm_id": 4562091894, "entrance": "yes", "level": "", "name": "", "ref": "", "door": "", "wheelchair": "no", "access": ""}}, {"type": "Feature", "geometry": {"type": "Point", "coordinates": [126.9510757, 37.4599776]}, "properties": {"osm_id": 4562091895, "entrance": "yes", "level": "", "name": "", "ref": "", "door": "", "wheelchair": "yes", "access": ""}}, {"type": "Feature", "geometry": {"type": "Point", "coordinates": [126.951259, 37.4601179]}, "properties": {"osm_id": 4562091896, "entrance": "yes", "level": "", "name": "", "ref": "", "door": "", "wheelchair": "yes", "access": ""}}, {"type": "Feature", "geometry": {"type": "Point", "coordinates": [126.9517214, 37.45941]}, "properties": {"osm_id": 4562091897, "entrance": "yes", "level": "", "name": "", "ref": "", "door": "", "wheelchair": "yes", "access": ""}}, {"type": "Feature", "geometry": {"type": "Point", "coordinates": [126.9520661, 37.4594409]}, "properties": {"osm_id": 4562091898, "entrance": "yes", "level": "", "name": "", "ref": "", "door": "", "wheelchair": "yes", "access": ""}}, {"type": "Feature", "geometry": {"type": "Point", "coordinates": [126.9520267, 37.4585901]}, "properties": {"osm_id": 4562091899, "entrance": "yes", "level": "", "name": "", "ref": "", "door": "", "wheelchair": "no", "access": ""}}, {"type": "Feature", "geometry": {"type": "Point", "coordinates": [126.9519808, 37.4585234]}, "properties": {"osm_id": 4562091900, "entrance": "yes", "level": "", "name": "", "ref": "", "door": "", "wheelchair": "no", "access": ""}}, {"type": "Feature", "geometry": {"type": "Point", "coordinates": [126.9529427, 37.4593299]}, "properties": {"osm_id": 4562091901, "entrance": "yes", "level": "", "name": "", "ref": "", "door": "", "wheelchair": "yes", "access": ""}}, {"type": "Feature", "geometry": {"type": "Point", "coordinates": [126.9486088, 37.4603562]}, "properties": {"osm_id": 4562091902, "entrance": "yes", "level": "", "name": "", "ref": "", "door": "", "wheelchair": "yes", "access": ""}}, {"type": "Feature", "geometry": {"type": "Point", "coordinates": [126.948493, 37.4598227]}, "properties": {"osm_id": 4562091903, "entrance": "yes", "level": "", "name": "", "ref": "", "door": "", "wheelchair": "yes", "access": ""}}, {"type": "Feature", "geometry": {"type": "Point", "coordinates": [126.9485318, 37.4594722]}, "properties": {"osm_id": 4562091904, "entrance": "yes", "level": "", "name": "", "ref": "", "door": "", "wheelchair": "yes", "access": ""}}, {"type": "Feature", "geometry": {"type": "Point", "coordinates": [126.9484402, 37.4591153]}, "properties": {"osm_id": 4562091905, "entrance": "yes", "level": "", "name": "", "ref": "", "door": "", "wheelchair": "yes", "access": ""}}, {"type": "Feature", "geometry": {"type": "Point", "coordinates": [126.9484796, 37.4587718]}, "properties": {"osm_id": 4562091906, "entrance": "yes", "level": "", "name": "", "ref": "", "door": "", "wheelchair": "yes", "access": ""}}, {"type": "Feature", "geometry": {"type": "Point", "coordinates": [126.9517565, 37.465622]}, "properties": {"osm_id": 4563745354, "entrance": "yes", "level": "", "name": "", "ref": "", "door": "", "wheelchair": "yes", "access": ""}}, {"type": "Feature", "geometry": {"type": "Point", "coordinates": [126.9520241, 37.4655946]}, "properties": {"osm_id": 4563745355, "entrance": "yes", "level": "", "name": "", "ref": "", "door": "", "wheelchair": "yes", "access": ""}}, {"type": "Feature", "geometry": {"type": "Point", "coordinates": [126.9519771, 37.4653816]}, "properties": {"osm_id": 4563745356, "entrance": "yes", "level": "", "name": "", "ref": "", "door": "", "wheelchair": "yes", "access": ""}}, {"type": "Feature", "geometry": {"type": "Point", "coordinates": [126.9526786, 37.465551]}, "properties": {"osm_id": 4563745358, "entrance": "yes", "level": "", "name": "", "ref": "", "door": "", "wheelchair": "no", "access": ""}}, {"type": "Feature", "geometry": {"type": "Point", "coordinates": [126.9517084, 37.4651791]}, "properties": {"osm_id": 4563745360, "entrance": "yes", "level": "", "name": "", "ref": "", "door": "", "wheelchair": "yes", "access": ""}}, {"type": "Feature", "geometry": {"type": "Point", "coordinates": [126.9516451, 37.4651382]}, "properties": {"osm_id": 4563745361, "entrance": "yes", "level": "", "name": "", "ref": "", "door": "", "wheelchair": "yes", "access": ""}}, {"type": "Feature", "geometry": {"type": "Point", "coordinates": [126.9514746, 37.4650253]}, "properties": {"osm_id": 4563745362, "entrance": "yes", "level": "", "name": "", "ref": "", "door": "", "wheelchair": "yes", "access": ""}}, {"type": "Feature", "geometry": {"type": "Point", "coordinates": [126.9515508, 37.4649276]}, "properties": {"osm_id": 4563745363, "entrance": "yes", "level": "", "name": "", "ref": "", "door": "", "wheelchair": "no", "access": ""}}, {"type": "Feature", "geometry": {"type": "Point", "coordinates": [126.9519505, 37.464995]}, "properties": {"osm_id": 4563745364, "entrance": "yes", "level": "", "name": "", "ref": "", "door": "", "wheelchair": "no", "access": ""}}, {"type": "Feature", "geometry": {"type": "Point", "coordinates": [126.9516742, 37.4649175]}, "properties": {"osm_id": 4563745365, "entrance": "yes", "level": "", "name": "", "ref": "", "door": "", "wheelchair": "no", "access": ""}}, {"type": "Feature", "geometry": {"type": "Point", "coordinates": [126.9523305, 37.4650247]}, "properties": {"osm_id": 4563745366, "entrance": "yes", "level": "", "name": "", "ref": "", "door": "", "wheelchair": "no", "access": ""}}, {"type": "Feature", "geometry": {"type": "Point", "coordinates": [126.9531257, 37.4653162]}, "properties": {"osm_id": 4563745369, "entrance": "yes", "level": "", "name": "", "ref": "", "door": "", "wheelchair": "yes", "access": ""}}, {"type": "Feature", "geometry": {"type": "Point", "coordinates": [126.9532678, 37.465307]}, "properties": {"osm_id": 4563745370, "entrance": "yes", "level": "", "name": "", "ref": "", "door": "", "wheelchair": "no", "access": ""}}, {"type": "Feature", "geometry": {"type": "Point", "coordinates": [126.9535762, 37.4650426]}, "properties": {"osm_id": 4563745371, "entrance": "yes", "level": "", "name": "", "ref": "", "door": "", "wheelchair": "yes", "access": ""}}, {"type": "Feature", "geometry": {"type": "Point", "coordinates": [126.9536353, 37.4649523]}, "properties": {"osm_id": 4563745372, "entrance": "yes", "level": "", "name": "", "ref": "", "door": "", "wheelchair": "yes", "access": ""}}, {"type": "Feature", "geometry": {"type": "Point", "coordinates": [126.9518056, 37.4645427]}, "properties": {"osm_id": 4563745374, "entrance": "yes", "level": "", "name": "", "ref": "", "door": "", "wheelchair": "yes", "access": ""}}, {"type": "Feature", "geometry": {"type": "Point", "coordinates": [126.9532539, 37.4647082]}, "properties": {"osm_id": 4563745375, "entrance": "yes", "level": "", "name": "", "ref": "", "door": "", "wheelchair": "yes", "access": ""}}, {"type": "Feature", "geometry": {"type": "Point", "coordinates": [126.9533796, 37.4647046]}, "properties": {"osm_id": 4563745376, "entrance": "yes", "level": "", "name": "", "ref": "", "door": "", "wheelchair": "no", "access": ""}}, {"type": "Feature", "geometry": {"type": "Point", "coordinates": [126.953038, 37.464401]}, "properties": {"osm_id": 4563745378, "entrance": "yes", "level": "", "name": "", "ref": "", "door": "", "wheelchair": "no", "access": ""}}, {"type": "Feature", "geometry": {"type": "Point", "coordinates": [126.9538243, 37.464636]}, "properties": {"osm_id": 4563745379, "entrance": "yes", "level": "", "name": "", "ref": "", "door": "", "wheelchair": "yes", "access": ""}}, {"type": "Feature", "geometry": {"type": "Point", "coordinates": [126.9539523, 37.4643906]}, "properties": {"osm_id": 4563745381, "entrance": "yes", "level": "", "name": "", "ref": "", "door": "", "wheelchair": "yes", "access": ""}}, {"type": "Feature", "geometry": {"type": "Point", "coordinates": [126.9540005, 37.4640225]}, "properties": {"osm_id": 4563745383, "entrance": "yes", "level": "", "name": "", "ref": "", "door": "", "wheelchair": "no", "access": ""}}, {"type": "Feature", "geometry": {"type": "Point", "coordinates": [126.9544793, 37.4648955]}, "properties": {"osm_id": 4563745384, "entrance": "yes", "level": "", "name": "", "ref": "", "door": "", "wheelchair": "yes", "access": ""}}, {"type": "Feature", "geometry": {"type": "Point", "coordinates": [126.9547835, 37.4646098]}, "properties": {"osm_id": 4563745385, "entrance": "yes", "level": "", "name": "", "ref": "", "door": "", "wheelchair": "yes", "access": ""}}, {"type": "Feature", "geometry": {"type": "Point", "coordinates": [126.9549943, 37.4645224]}, "properties": {"osm_id": 4563745386, "entrance": "yes", "level": "", "name": "", "ref": "", "door": "", "wheelchair": "yes", "access": ""}}, {"type": "Feature", "geometry": {"type": "Point", "coordinates": [126.9548529, 37.4641]}, "properties": {"osm_id": 4563745387, "entrance": "yes", "level": "", "name": "", "ref": "", "door": "", "wheelchair": "no", "access": ""}}, {"type": "Feature", "geometry": {"type": "Point", "coordinates": [126.954579, 37.4641829]}, "properties": {"osm_id": 4563745388, "entrance": "yes", "level": "", "name": "", "ref": "", "door": "", "wheelchair": "no", "access": ""}}, {"type": "Feature", "geometry": {"type": "Point", "coordinates": [126.9547584, 37.4639469]}, "properties": {"osm_id": 4563745989, "entrance": "yes", "level": "", "name": "", "ref": "", "door": "", "wheelchair": "yes", "access": ""}}, {"type": "Feature", "geometry": {"type": "Point", "coordinates": [126.952556, 37.4627216]}, "properties": {"osm_id": 4564623339, "entrance": "yes", "level": "", "name": "", "ref": "", "door": "", "wheelchair": "no", "access": ""}}, {"type": "Feature", "geometry": {"type": "Point", "coordinates": [126.952565, 37.462865]}, "properties": {"osm_id": 4564623340, "entrance": "yes", "level": "", "name": "", "ref": "", "door": "", "wheelchair": "yes", "access": ""}}, {"type": "Feature", "geometry": {"type": "Point", "coordinates": [126.9523269, 37.4631624]}, "properties": {"osm_id": 4564623341, "entrance": "yes", "level": "", "name": "", "ref": "", "door": "", "wheelchair": "yes", "access": ""}}, {"type": "Feature", "geometry": {"type": "Point", "coordinates": [126.9524414, 37.4634805]}, "properties": {"osm_id": 4564623342, "entrance": "yes", "level": "", "name": "", "ref": "", "door": "", "wheelchair": "yes", "access": ""}}, {"type": "Feature", "geometry": {"type": "Point", "coordinates": [126.9530292, 37.4637129]}, "properties": {"osm_id": 4564623345, "entrance": "yes", "level": "", "name": "", "ref": "", "door": "", "wheelchair": "no", "access": ""}}, {"type": "Feature", "geometry": {"type": "Point", "coordinates": [126.9530474, 37.4636365]}, "properties": {"osm_id": 4564623346, "entrance": "yes", "level": "", "name": "", "ref": "", "door": "", "wheelchair": "no", "access": ""}}, {"type": "Feature", "geometry": {"type": "Point", "coordinates": [126.9534028, 37.4636174]}, "properties": {"osm_id": 4564623347, "entrance": "yes", "level": "", "name": "", "ref": "", "door": "", "wheelchair": "no", "access": ""}}, {"type": "Feature", "geometry": {"type": "Point", "coordinates": [126.9531596, 37.4634271]}, "properties": {"osm_id": 4564623348, "entrance": "yes", "level": "", "name": "", "ref": "", "door": "", "wheelchair": "yes", "access": ""}}, {"type": "Feature", "geometry": {"type": "Point", "coordinates": [126.9536541, 37.4633619]}, "properties": {"osm_id": 4564623349, "entrance": "yes", "level": "", "name": "", "ref": "", "door": "", "wheelchair": "yes", "access": ""}}, {"type": "Feature", "geometry": {"type": "Point", "coordinates": [126.9534536, 37.4629152]}, "properties": {"osm_id": 4564623351, "entrance": "yes", "level": "", "name": "", "ref": "", "door": "", "wheelchair": "no", "access": ""}}, {"type": "Feature", "geometry": {"type": "Point", "coordinates": [126.9530415, 37.4628271]}, "properties": {"osm_id": 4564623352, "entrance": "yes", "level": "", "name": "", "ref": "", "door": "", "wheelchair": "no", "access": ""}}, {"type": "Feature", "geometry": {"type": "Point", "coordinates": [126.9532158, 37.4627069]}, "properties": {"osm_id": 4564623353, "entrance": "yes", "level": "", "name": "", "ref": "", "door": "", "wheelchair": "no", "access": ""}}, {"type": "Feature", "geometry": {"type": "Point", "coordinates": [126.9530742, 37.4624092]}, "properties": {"osm_id": 4564623354, "entrance": "yes", "level": "", "name": "", "ref": "", "door": "", "wheelchair": "no", "access": ""}}, {"type": "Feature", "geometry": {"type": "Point", "coordinates": [126.9530434, 37.4624065]}, "properties": {"osm_id": 4564623355, "entrance": "yes", "level": "", "name": "", "ref": "", "door": "", "wheelchair": "yes", "access": ""}}, {"type": "Feature", "geometry": {"type": "Point", "coordinates": [126.9528844, 37.4625213]}, "properties": {"osm_id": 4564623356, "entrance": "yes", "level": "", "name": "", "ref": "", "door": "", "wheelchair": "no", "access": ""}}, {"type": "Feature", "geometry": {"type": "Point", "coordinates": [126.9533778, 37.4624022]}, "properties": {"osm_id": 4564623357, "entrance": "yes", "level": "", "name": "", "ref": "", "door": "", "wheelchair": "yes", "access": ""}}, {"type": "Feature", "geometry": {"type": "Point", "coordinates": [126.9538369, 37.4629836]}, "properties": {"osm_id": 4564623360, "entrance": "yes", "level": "", "name": "", "ref": "", "door": "", "wheelchair": "yes", "access": ""}}, {"type": "Feature", "geometry": {"type": "Point", "coordinates": [126.9527268, 37.4619482]}, "properties": {"osm_id": 4564623362, "entrance": "yes", "level": "", "name": "", "ref": "", "door": "", "wheelchair": "yes", "access": ""}}, {"type": "Feature", "geometry": {"type": "Point", "coordinates": [126.9528064, 37.4620154]}, "properties": {"osm_id": 4564623363, "entrance": "yes", "level": "", "name": "", "ref": "", "door": "", "wheelchair": "no", "access": ""}}, {"type": "Feature", "geometry": {"type": "Point", "coordinates": [126.9532448, 37.4620347]}, "properties": {"osm_id": 4564623364, "entrance": "yes", "level": "", "name": "", "ref": "", "door": "", "wheelchair": "yes", "access": ""}}, {"type": "Feature", "geometry": {"type": "Point", "coordinates": [126.9527525, 37.4617553]}, "properties": {"osm_id": 4564623365, "entrance": "yes", "level": "", "name": "", "ref": "", "door": "", "wheelchair": "yes", "access": ""}}, {"type": "Feature", "geometry": {"type": "Point", "coordinates": [126.9530892, 37.4618545]}, "properties": {"osm_id": 4564623366, "entrance": "yes", "level": "", "name": "", "ref": "", "door": "", "wheelchair": "no", "access": ""}}, {"type": "Feature", "geometry": {"type": "Point", "coordinates": [126.9532194, 37.4607821]}, "properties": {"osm_id": 4564750842, "entrance": "yes", "level": "", "name": "", "ref": "", "door": "", "wheelchair": "yes", "access": ""}}, {"type": "Feature", "geometry": {"type": "Point", "coordinates": [126.9534138, 37.460816]}, "properties": {"osm_id": 4564750843, "entrance": "yes", "level": "", "name": "", "ref": "", "door": "", "wheelchair": "yes", "access": ""}}, {"type": "Feature", "geometry": {"type": "Point", "coordinates": [126.9534641, 37.4608044]}, "properties": {"osm_id": 4564750844, "entrance": "yes", "level": "", "name": "", "ref": "", "door": "", "wheelchair": "yes", "access": ""}}, {"type": "Feature", "geometry": {"type": "Point", "coordinates": [126.9520184, 37.4603829]}, "properties": {"osm_id": 4564750845, "entrance": "yes", "level": "", "name": "", "ref": "", "door": "", "wheelchair": "no", "access": ""}}, {"type": "Feature", "geometry": {"type": "Point", "coordinates": [126.951936, 37.4577706]}, "properties": {"osm_id": 4564750846, "entrance": "yes", "level": "", "name": "", "ref": "", "door": "", "wheelchair": "yes", "access": ""}}, {"type": "Feature", "geometry": {"type": "Point", "coordinates": [126.9525923, 37.4603106]}, "properties": {"osm_id": 4564750847, "entrance": "yes", "level": "", "name": "", "ref": "", "door": "", "wheelchair": "no", "access": ""}}, {"type": "Feature", "geometry": {"type": "Point", "coordinates": [126.952679, 37.4601853]}, "properties": {"osm_id": 4564750848, "entrance": "yes", "level": "", "name": "", "ref": "", "door": "", "wheelchair": "no", "access": ""}}, {"type": "Feature", "geometry": {"type": "Point", "coordinates": [126.9526412, 37.4604646]}, "properties": {"osm_id": 4564750849, "entrance": "yes", "level": "", "name": "", "ref": "", "door": "", "wheelchair": "yes", "access": ""}}, {"type": "Feature", "geometry": {"type": "Point", "coordinates": [126.9526776, 37.4605414]}, "properties": {"osm_id": 4564750850, "entrance": "yes", "level": "", "name": "", "ref": "", "door": "", "wheelchair": "no", "access": ""}}, {"type": "Feature", "geometry": {"type": "Point", "coordinates": [126.9527401, 37.4603182]}, "properties": {"osm_id": 4564750851, "entrance": "yes", "level": "", "name": "", "ref": "", "door": "", "wheelchair": "yes", "access": ""}}, {"type": "Feature", "geometry": {"type": "Point", "coordinates": [126.9532656, 37.4603873]}, "properties": {"osm_id": 4564750852, "entrance": "yes", "level": "", "name": "", "ref": "", "door": "", "wheelchair": "yes", "access": ""}}, {"type": "Feature", "geometry": {"type": "Point", "coordinates": [126.9532354, 37.4603965]}, "properties": {"osm_id": 4564750853, "entrance": "yes", "level": "", "name": "", "ref": "", "door": "", "wheelchair": "yes", "access": ""}}, {"type": "Feature", "geometry": {"type": "Point", "coordinates": [126.9532535, 37.4602915]}, "properties": {"osm_id": 4564750854, "entrance": "yes", "level": "", "name": "", "ref": "", "door": "", "wheelchair": "no", "access": ""}}, {"type": "Feature", "geometry": {"type": "Point", "coordinates": [126.9533312, 37.4604493]}, "properties": {"osm_id": 4564750855, "entrance": "yes", "level": "", "name": "", "ref": "", "door": "", "wheelchair": "yes", "access": ""}}, {"type": "Feature", "geometry": {"type": "Point", "coordinates": [126.953696, 37.4607505]}, "properties": {"osm_id": 4564750856, "entrance": "yes", "level": "", "name": "", "ref": "", "door": "", "wheelchair": "yes", "access": ""}}, {"type": "Feature", "geometry": {"type": "Point", "coordinates": [126.9537421, 37.4609831]}, "properties": {"osm_id": 4564750857, "entrance": "yes", "level": "", "name": "", "ref": "", "door": "", "wheelchair": "no", "access": ""}}, {"type": "Feature", "geometry": {"type": "Point", "coordinates": [126.9541807, 37.4609194]}, "properties": {"osm_id": 4564750858, "entrance": "yes", "level": "", "name": "", "ref": "", "door": "", "wheelchair": "no", "access": ""}}, {"type": "Feature", "geometry": {"type": "Point", "coordinates": [126.9538987, 37.4607325]}, "properties": {"osm_id": 4564750859, "entrance": "yes", "level": "", "name": "", "ref": "", "door": "", "wheelchair": "no", "access": ""}}, {"type": "Feature", "geometry": {"type": "Point", "coordinates": [126.9536484, 37.4603667]}, "properties": {"osm_id": 4564750860, "entrance": "yes", "level": "", "name": "", "ref": "", "door": "", "wheelchair": "yes", "access": ""}}, {"type": "Feature", "geometry": {"type": "Point", "coordinates": [126.9539031, 37.4603967]}, "properties": {"osm_id": 4564750861, "entrance": "yes", "level": "", "name": "", "ref": "", "door": "", "wheelchair": "yes", "access": ""}}, {"type": "Feature", "geometry": {"type": "Point", "coordinates": [126.9542558, 37.4608585]}, "properties": {"osm_id": 4564750862, "entrance": "yes", "level": "", "name": "", "ref": "", "door": "", "wheelchair": "yes", "access": ""}}, {"type": "Feature", "geometry": {"type": "Point", "coordinates": [126.9543, 37.4608527]}, "properties": {"osm_id": 4564750863, "entrance": "yes", "level": "", "name": "", "ref": "", "door": "", "wheelchair": "yes", "access": ""}}, {"type": "Feature", "geometry": {"type": "Point", "coordinates": [126.9543388, 37.4607101]}, "properties": {"osm_id": 4564750864, "entrance": "yes", "level": "", "name": "", "ref": "", "door": "", "wheelchair": "no", "access": ""}}, {"type": "Feature", "geometry": {"type": "Point", "coordinates": [126.9547527, 37.4606077]}, "properties": {"osm_id": 4564750865, "entrance": "yes", "level": "", "name": "", "ref": "", "door": "", "wheelchair": "no", "access": ""}}, {"type": "Feature", "geometry": {"type": "Point", "coordinates": [126.9546959, 37.4605183]}, "properties": {"osm_id": 4564750866, "entrance": "yes", "level": "", "name": "", "ref": "", "door": "", "wheelchair": "no", "access": ""}}, {"type": "Feature", "geometry": {"type": "Point", "coordinates": [126.9544738, 37.4605778]}, "properties": {"osm_id": 4564750867, "entrance": "yes", "level": "", "name": "", "ref": "", "door": "", "wheelchair": "yes", "access": ""}}, {"type": "Feature", "geometry": {"type": "Point", "coordinates": [126.9540973, 37.4602173]}, "properties": {"osm_id": 4564750868, "entrance": "yes", "level": "", "name": "", "ref": "", "door": "", "wheelchair": "no", "access": ""}}, {"type": "Feature", "geometry": {"type": "Point", "coordinates": [126.9539079, 37.4602613]}, "properties": {"osm_id": 4564750869, "entrance": "yes", "level": "", "name": "", "ref": "", "door": "", "wheelchair": "yes", "access": ""}}, {"type": "Feature", "geometry": {"type": "Point", "coordinates": [126.954364, 37.4600633]}, "properties": {"osm_id": 4564750870, "entrance": "yes", "level": "", "name": "", "ref": "", "door": "", "wheelchair": "yes", "access": ""}}, {"type": "Feature", "geometry": {"type": "Point", "coordinates": [126.9541051, 37.4599612]}, "properties": {"osm_id": 4564750871, "entrance": "yes", "level": "", "name": "", "ref": "", "door": "", "wheelchair": "no", "access": ""}}, {"type": "Feature", "geometry": {"type": "Point", "coordinates": [126.9535451, 37.460015]}, "properties": {"osm_id": 4564750872, "entrance": "yes", "level": "", "name": "", "ref": "", "door": "", "wheelchair": "yes", "access": ""}}, {"type": "Feature", "geometry": {"type": "Point", "coordinates": [126.9547959, 37.4603419]}, "properties": {"osm_id": 4564750877, "entrance": "yes", "level": "", "name": "", "ref": "", "door": "", "wheelchair": "no", "access": ""}}, {"type": "Feature", "geometry": {"type": "Point", "coordinates": [126.9550563, 37.4605012]}, "properties": {"osm_id": 4564750878, "entrance": "yes", "level": "", "name": "", "ref": "", "door": "", "wheelchair": "no", "access": ""}}, {"type": "Feature", "geometry": {"type": "Point", "coordinates": [126.955102, 37.4603992]}, "properties": {"osm_id": 4564750879, "entrance": "yes", "level": "", "name": "", "ref": "", "door": "", "wheelchair": "yes", "access": ""}}, {"type": "Feature", "geometry": {"type": "Point", "coordinates": [126.9551612, 37.4603853]}, "properties": {"osm_id": 4564750880, "entrance": "yes", "level": "", "name": "", "ref": "", "door": "", "wheelchair": "yes", "access": ""}}, {"type": "Feature", "geometry": {"type": "Point", "coordinates": [126.955226, 37.4602402]}, "properties": {"osm_id": 4564750881, "entrance": "yes", "level": "", "name": "", "ref": "", "door": "", "wheelchair": "no", "access": ""}}, {"type": "Feature", "geometry": {"type": "Point", "coordinates": [126.9553466, 37.4600793]}, "properties": {"osm_id": 4564750882, "entrance": "yes", "level": "", "name": "", "ref": "", "door": "", "wheelchair": "yes", "access": ""}}, {"type": "Feature", "geometry": {"type": "Point", "coordinates": [126.9555069, 37.4600604]}, "properties": {"osm_id": 4564750883, "entrance": "yes", "level": "", "name": "", "ref": "", "door": "", "wheelchair": "no", "access": ""}}, {"type": "Feature", "geometry": {"type": "Point", "coordinates": [126.9557261, 37.4600178]}, "properties": {"osm_id": 4564750884, "entrance": "yes", "level": "", "name": "", "ref": "", "door": "", "wheelchair": "yes", "access": ""}}, {"type": "Feature", "geometry": {"type": "Point", "coordinates": [126.955599, 37.4601793]}, "properties": {"osm_id": 4564750885, "entrance": "yes", "level": "", "name": "", "ref": "", "door": "", "wheelchair": "no", "access": ""}}, {"type": "Feature", "geometry": {"type": "Point", "coordinates": [126.9555958, 37.460639]}, "properties": {"osm_id": 4564809430, "entrance": "yes", "level": "", "name": "", "ref": "", "door": "", "wheelchair": "yes", "access": ""}}, {"type": "Feature", "geometry": {"type": "Point", "coordinates": [126.954648, 37.4596555]}, "properties": {"osm_id": 4564809431, "entrance": "yes", "level": "", "name": "", "ref": "", "door": "", "wheelchair": "yes", "access": ""}}, {"type": "Feature", "geometry": {"type": "Point", "coordinates": [126.954932, 37.4593259]}, "properties": {"osm_id": 4564809432, "entrance": "yes", "level": "", "name": "", "ref": "", "door": "", "wheelchair": "yes", "access": ""}}, {"type": "Feature", "geometry": {"type": "Point", "coordinates": [126.9549023, 37.4597043]}, "properties": {"osm_id": 4564809433, "entrance": "yes", "level": "", "name": "", "ref": "", "door": "", "wheelchair": "yes", "access": ""}}, {"type": "Feature", "geometry": {"type": "Point", "coordinates": [126.9543504, 37.4593929]}, "properties": {"osm_id": 4564809434, "entrance": "yes", "level": "", "name": "", "ref": "", "door": "", "wheelchair": "yes", "access": ""}}, {"type": "Feature", "geometry": {"type": "Point", "coordinates": [126.9539779, 37.4593358]}, "properties": {"osm_id": 4564809435, "entrance": "yes", "level": "", "name": "", "ref": "", "door": "", "wheelchair": "yes", "access": ""}}, {"type": "Feature", "geometry": {"type": "Point", "coordinates": [126.9536918, 37.4590468]}, "properties": {"osm_id": 4564809437, "entrance": "yes", "level": "", "name": "", "ref": "", "door": "", "wheelchair": "yes", "access": ""}}, {"type": "Feature", "geometry": {"type": "Point", "coordinates": [126.953061, 37.4586711]}, "properties": {"osm_id": 4564809438, "entrance": "yes", "level": "", "name": "", "ref": "", "door": "", "wheelchair": "yes", "access": ""}}, {"type": "Feature", "geometry": {"type": "Point", "coordinates": [126.9525954, 37.4585821]}, "properties": {"osm_id": 4564809439, "entrance": "yes", "level": "", "name": "", "ref": "", "door": "", "wheelchair": "no", "access": ""}}, {"type": "Feature", "geometry": {"type": "Point", "coordinates": [126.9527393, 37.4584335]}, "properties": {"osm_id": 4564809440, "entrance": "yes", "level": "", "name": "", "ref": "", "door": "", "wheelchair": "no", "access": ""}}, {"type": "Feature", "geometry": {"type": "Point", "coordinates": [126.9491402, 37.4638261]}, "properties": {"osm_id": 4564809442, "entrance": "yes", "level": "", "name": "", "ref": "", "door": "", "wheelchair": "yes", "access": ""}}, {"type": "Feature", "geometry": {"type": "Point", "coordinates": [126.9496037, 37.4637155]}, "properties": {"osm_id": 4564809443, "entrance": "yes", "level": "", "name": "", "ref": "", "door": "", "wheelchair": "no", "access": ""}}, {"type": "Feature", "geometry": {"type": "Point", "coordinates": [126.949435, 37.46352]}, "properties": {"osm_id": 4564809444, "entrance": "yes", "level": "", "name": "", "ref": "", "door": "", "wheelchair": "yes", "access": ""}}, {"type": "Feature", "geometry": {"type": "Point", "coordinates": [126.949737, 37.4634278]}, "properties": {"osm_id": 4564809445, "entrance": "yes", "level": "", "name": "", "ref": "", "door": "", "wheelchair": "yes", "access": ""}}, {"type": "Feature", "geometry": {"type": "Point", "coordinates": [126.9500188, 37.4631629]}, "properties": {"osm_id": 4564809446, "entrance": "yes", "level": "", "name": "", "ref": "", "door": "", "wheelchair": "yes", "access": ""}}, {"type": "Feature", "geometry": {"type": "Point", "coordinates": [126.9504083, 37.4632976]}, "properties": {"osm_id": 4564809448, "entrance": "yes", "level": "", "name": "", "ref": "", "door": "", "wheelchair": "yes", "access": ""}}, {"type": "Feature", "geometry": {"type": "Point", "coordinates": [126.9510957, 37.4633538]}, "properties": {"osm_id": 4564809455, "entrance": "yes", "level": "", "name": "", "ref": "", "door": "", "wheelchair": "yes", "access": ""}}, {"type": "Feature", "geometry": {"type": "Point", "coordinates": [126.9508749, 37.4639543]}, "properties": {"osm_id": 4564809456, "entrance": "yes", "level": "", "name": "", "ref": "", "door": "", "wheelchair": "yes", "access": ""}}, {"type": "Feature", "geometry": {"type": "Point", "coordinates": [126.9512908, 37.464238]}, "properties": {"osm_id": 4564809460, "entrance": "yes", "level": "", "name": "", "ref": "", "door": "", "wheelchair": "yes", "access": ""}}, {"type": "Feature", "geometry": {"type": "Point", "coordinates": [126.951244, 37.4640434]}, "properties": {"osm_id": 4564809461, "entrance": "yes", "level": "", "name": "", "ref": "", "door": "", "wheelchair": "no", "access": ""}}, {"type": "Feature", "geometry": {"type": "Point", "coordinates": [126.9513724, 37.4633993]}, "properties": {"osm_id": 4564809462, "entrance": "yes", "level": "", "name": "", "ref": "", "door": "", "wheelchair": "yes", "access": ""}}, {"type": "Feature", "geometry": {"type": "Point", "coordinates": [126.951867, 37.4635143]}, "properties": {"osm_id": 4564809463, "entrance": "yes", "level": "", "name": "", "ref": "", "door": "", "wheelchair": "yes", "access": ""}}, {"type": "Feature", "geometry": {"type": "Point", "coordinates": [126.9511895, 37.4628842]}, "properties": {"osm_id": 4564809464, "entrance": "yes", "level": "", "name": "", "ref": "", "door": "", "wheelchair": "yes", "access": ""}}, {"type": "Feature", "geometry": {"type": "Point", "coordinates": [126.9511223, 37.4628361]}, "properties": {"osm_id": 4564809465, "entrance": "yes", "level": "", "name": "", "ref": "", "door": "", "wheelchair": "yes", "access": ""}}, {"type": "Feature", "geometry": {"type": "Point", "coordinates": [126.9508084, 37.4628058]}, "properties": {"osm_id": 4564809466, "entrance": "yes", "level": "", "name": "", "ref": "", "door": "", "wheelchair": "yes", "access": ""}}, {"type": "Feature", "geometry": {"type": "Point", "coordinates": [126.951835, 37.4627367]}, "properties": {"osm_id": 4564809467, "entrance": "yes", "level": "", "name": "", "ref": "", "door": "", "wheelchair": "yes", "access": ""}}, {"type": "Feature", "geometry": {"type": "Point", "coordinates": [126.9520087, 37.4626905]}, "properties": {"osm_id": 4564809468, "entrance": "yes", "level": "", "name": "", "ref": "", "door": "", "wheelchair": "no", "access": ""}}, {"type": "Feature", "geometry": {"type": "Point", "coordinates": [126.9508232, 37.4626151]}, "properties": {"osm_id": 4564809469, "entrance": "yes", "level": "", "name": "", "ref": "", "door": "", "wheelchair": "no", "access": ""}}, {"type": "Feature", "geometry": {"type": "Point", "coordinates": [126.9509743, 37.4626307]}, "properties": {"osm_id": 4564809470, "entrance": "yes", "level": "", "name": "", "ref": "", "door": "", "wheelchair": "yes", "access": ""}}, {"type": "Feature", "geometry": {"type": "Point", "coordinates": [126.9514507, 37.4628415]}, "properties": {"osm_id": 4564809471, "entrance": "yes", "level": "", "name": "", "ref": "", "door": "", "wheelchair": "yes", "access": ""}}, {"type": "Feature", "geometry": {"type": "Point", "coordinates": [126.9514511, 37.4622388]}, "properties": {"osm_id": 4564809472, "entrance": "yes", "level": "", "name": "", "ref": "", "door": "", "wheelchair": "yes", "access": ""}}, {"type": "Feature", "geometry": {"type": "Point", "coordinates": [126.9519917, 37.4625626]}, "properties": {"osm_id": 4564809475, "entrance": "yes", "level": "", "name": "", "ref": "", "door": "", "wheelchair": "yes", "access": ""}}, {"type": "Feature", "geometry": {"type": "Point", "coordinates": [126.952012, 37.4623323]}, "properties": {"osm_id": 4564809476, "entrance": "yes", "level": "", "name": "", "ref": "", "door": "", "wheelchair": "yes", "access": ""}}, {"type": "Feature", "geometry": {"type": "Point", "coordinates": [126.9515344, 37.4620922]}, "properties": {"osm_id": 4564809479, "entrance": "yes", "level": "", "name": "", "ref": "", "door": "", "wheelchair": "yes", "access": ""}}, {"type": "Feature", "geometry": {"type": "Point", "coordinates": [126.9516228, 37.4618812]}, "properties": {"osm_id": 4564809480, "entrance": "yes", "level": "", "name": "", "ref": "", "door": "", "wheelchair": "yes", "access": ""}}, {"type": "Feature", "geometry": {"type": "Point", "coordinates": [126.9504109, 37.4620306]}, "properties": {"osm_id": 4564809482, "entrance": "yes", "level": "", "name": "", "ref": "", "door": "", "wheelchair": "no", "access": ""}}, {"type": "Feature", "geometry": {"type": "Point", "coordinates": [126.9487243, 37.4568856]}, "properties": {"osm_id": 4564998553, "entrance": "yes", "level": "", "name": "", "ref": "", "door": "", "wheelchair": "yes", "access": ""}}, {"type": "Feature", "geometry": {"type": "Point", "coordinates": [126.949117, 37.4562661]}, "properties": {"osm_id": 4564998555, "entrance": "yes", "level": "", "name": "", "ref": "", "door": "", "wheelchair": "yes", "access": ""}}, {"type": "Feature", "geometry": {"type": "Point", "coordinates": [126.9492858, 37.4559553]}, "properties": {"osm_id": 4564998556, "entrance": "yes", "level": "", "name": "", "ref": "", "door": "", "wheelchair": "no", "access": ""}}, {"type": "Feature", "geometry": {"type": "Point", "coordinates": [126.9500179, 37.4569163]}, "properties": {"osm_id": 4564998557, "entrance": "yes", "level": "", "name": "", "ref": "", "door": "", "wheelchair": "yes", "access": ""}}, {"type": "Feature", "geometry": {"type": "Point", "coordinates": [126.950237, 37.4569336]}, "properties": {"osm_id": 4564998558, "entrance": "yes", "level": "", "name": "", "ref": "", "door": "", "wheelchair": "no", "access": ""}}, {"type": "Feature", "geometry": {"type": "Point", "coordinates": [126.9503055, 37.4571641]}, "properties": {"osm_id": 4564998559, "entrance": "yes", "level": "", "name": "", "ref": "", "door": "", "wheelchair": "yes", "access": ""}}, {"type": "Feature", "geometry": {"type": "Point", "coordinates": [126.9506316, 37.4572612]}, "properties": {"osm_id": 4564998560, "entrance": "yes", "level": "", "name": "", "ref": "", "door": "", "wheelchair": "yes", "access": ""}}, {"type": "Feature", "geometry": {"type": "Point", "coordinates": [126.9509161, 37.4565241]}, "properties": {"osm_id": 4564998562, "entrance": "yes", "level": "", "name": "", "ref": "", "door": "", "wheelchair": "yes", "access": ""}}, {"type": "Feature", "geometry": {"type": "Point", "coordinates": [126.950777, 37.4565738]}, "properties": {"osm_id": 4564998563, "entrance": "yes", "level": "", "name": "", "ref": "", "door": "", "wheelchair": "no", "access": ""}}, {"type": "Feature", "geometry": {"type": "Point", "coordinates": [126.9502417, 37.456139]}, "properties": {"osm_id": 4564998568, "entrance": "yes", "level": "", "name": "", "ref": "", "door": "", "wheelchair": "yes", "access": ""}}, {"type": "Feature", "geometry": {"type": "Point", "coordinates": [126.9506916, 37.4561753]}, "properties": {"osm_id": 4564998569, "entrance": "yes", "level": "", "name": "", "ref": "", "door": "", "wheelchair": "yes", "access": ""}}, {"type": "Feature", "geometry": {"type": "Point", "coordinates": [126.9509403, 37.4563608]}, "properties": {"osm_id": 4564998570, "entrance": "yes", "level": "", "name": "", "ref": "", "door": "", "wheelchair": "yes", "access": ""}}, {"type": "Feature", "geometry": {"type": "Point", "coordinates": [126.9512468, 37.45668]}, "properties": {"osm_id": 4564998571, "entrance": "yes", "level": "", "name": "", "ref": "", "door": "", "wheelchair": "yes", "access": ""}}, {"type": "Feature", "geometry": {"type": "Point", "coordinates": [126.9514579, 37.4567877]}, "properties": {"osm_id": 4564998572, "entrance": "yes", "level": "", "name": "", "ref": "", "door": "", "wheelchair": "no", "access": ""}}, {"type": "Feature", "geometry": {"type": "Point", "coordinates": [126.9515675, 37.4573111]}, "properties": {"osm_id": 4564998573, "entrance": "yes", "level": "", "name": "", "ref": "", "door": "", "wheelchair": "yes", "access": ""}}, {"type": "Feature", "geometry": {"type": "Point", "coordinates": [126.9526873, 37.4567742]}, "properties": {"osm_id": 4564998581, "entrance": "yes", "level": "", "name": "", "ref": "", "door": "", "wheelchair": "no", "access": ""}}, {"type": "Feature", "geometry": {"type": "Point", "coordinates": [126.9526422, 37.4561835]}, "properties": {"osm_id": 4564998582, "entrance": "yes", "level": "", "name": "", "ref": "", "door": "", "wheelchair": "yes", "access": ""}}, {"type": "Feature", "geometry": {"type": "Point", "coordinates": [126.9507038, 37.4560478]}, "properties": {"osm_id": 4564998583, "entrance": "yes", "level": "", "name": "", "ref": "", "door": "", "wheelchair": "yes", "access": ""}}, {"type": "Feature", "geometry": {"type": "Point", "coordinates": [126.950869, 37.455911]}, "properties": {"osm_id": 4564998584, "entrance": "yes", "level": "", "name": "", "ref": "", "door": "", "wheelchair": "no", "access": ""}}, {"type": "Feature", "geometry": {"type": "Point", "coordinates": [126.9509441, 37.4554042]}, "properties": {"osm_id": 4564998585, "entrance": "yes", "level": "", "name": "", "ref": "", "door": "", "wheelchair": "yes", "access": ""}}, {"type": "Feature", "geometry": {"type": "Point", "coordinates": [126.9518033, 37.4555779]}, "properties": {"osm_id": 4564998587, "entrance": "yes", "level": "", "name": "", "ref": "", "door": "", "wheelchair": "no", "access": ""}}, {"type": "Feature", "geometry": {"type": "Point", "coordinates": [126.9515388, 37.4550519]}, "properties": {"osm_id": 4564999892, "entrance": "yes", "level": "", "name": "", "ref": "", "door": "", "wheelchair": "no", "access": ""}}, {"type": "Feature", "geometry": {"type": "Point", "coordinates": [126.9516007, 37.4548112]}, "properties": {"osm_id": 4564999893, "entrance": "yes", "level": "", "name": "NH농협은행", "ref": "", "door": "", "wheelchair": "yes", "access": ""}}, {"type": "Feature", "geometry": {"type": "Point", "coordinates": [126.9516242, 37.4545519]}, "properties": {"osm_id": 4564999894, "entrance": "yes", "level": "", "name": "", "ref": "", "door": "", "wheelchair": "yes", "access": ""}}, {"type": "Feature", "geometry": {"type": "Point", "coordinates": [126.9519527, 37.455135]}, "properties": {"osm_id": 4564999900, "entrance": "yes", "level": "", "name": "", "ref": "", "door": "", "wheelchair": "yes", "access": ""}}, {"type": "Feature", "geometry": {"type": "Point", "coordinates": [126.9514985, 37.4543606]}, "properties": {"osm_id": 4564999901, "entrance": "yes", "level": "", "name": "", "ref": "", "door": "", "wheelchair": "no", "access": ""}}, {"type": "Feature", "geometry": {"type": "Point", "coordinates": [126.9519754, 37.454708]}, "properties": {"osm_id": 4564999911, "entrance": "yes", "level": "", "name": "", "ref": "", "door": "", "wheelchair": "no", "access": ""}}, {"type": "Feature", "geometry": {"type": "Point", "coordinates": [126.952012, 37.454462]}, "properties": {"osm_id": 4564999912, "entrance": "yes", "level": "", "name": "", "ref": "", "door": "", "wheelchair": "no", "access": ""}}, {"type": "Feature", "geometry": {"type": "Point", "coordinates": [126.9520321, 37.4542452]}, "properties": {"osm_id": 4564999913, "entrance": "yes", "level": "", "name": "", "ref": "", "door": "", "wheelchair": "no", "access": ""}}, {"type": "Feature", "geometry": {"type": "Point", "coordinates": [126.9513107, 37.4541257]}, "properties": {"osm_id": 4564999914, "entrance": "yes", "level": "", "name": "", "ref": "", "door": "", "wheelchair": "yes", "access": ""}}, {"type": "Feature", "geometry": {"type": "Point", "coordinates": [126.9523469, 37.4551451]}, "properties": {"osm_id": 4564999915, "entrance": "yes", "level": "", "name": "", "ref": "", "door": "", "wheelchair": "no", "access": ""}}, {"type": "Feature", "geometry": {"type": "Point", "coordinates": [126.9523611, 37.4549979]}, "properties": {"osm_id": 4564999916, "entrance": "yes", "level": "", "name": "", "ref": "", "door": "", "wheelchair": "no", "access": ""}}, {"type": "Feature", "geometry": {"type": "Point", "coordinates": [126.9529471, 37.4544393]}, "properties": {"osm_id": 4564999917, "entrance": "yes", "level": "", "name": "", "ref": "", "door": "", "wheelchair": "yes", "access": ""}}, {"type": "Feature", "geometry": {"type": "Point", "coordinates": [126.9502757, 37.4541945]}, "properties": {"osm_id": 4564999919, "entrance": "yes", "level": "", "name": "", "ref": "", "door": "", "wheelchair": "no", "access": ""}}, {"type": "Feature", "geometry": {"type": "Point", "coordinates": [126.9507743, 37.4541502]}, "properties": {"osm_id": 4564999920, "entrance": "yes", "level": "", "name": "", "ref": "", "door": "", "wheelchair": "no", "access": ""}}, {"type": "Feature", "geometry": {"type": "Point", "coordinates": [126.9534122, 37.4548256]}, "properties": {"osm_id": 4564999925, "entrance": "yes", "level": "", "name": "", "ref": "", "door": "", "wheelchair": "yes", "access": ""}}, {"type": "Feature", "geometry": {"type": "Point", "coordinates": [126.9532408, 37.4549518]}, "properties": {"osm_id": 4564999926, "entrance": "yes", "level": "", "name": "", "ref": "", "door": "", "wheelchair": "yes", "access": ""}}, {"type": "Feature", "geometry": {"type": "Point", "coordinates": [126.9537396, 37.4548886]}, "properties": {"osm_id": 4564999927, "entrance": "yes", "level": "", "name": "", "ref": "", "door": "", "wheelchair": "yes", "access": ""}}, {"type": "Feature", "geometry": {"type": "Point", "coordinates": [126.9540761, 37.4547888]}, "properties": {"osm_id": 4564999928, "entrance": "yes", "level": "", "name": "", "ref": "", "door": "", "wheelchair": "yes", "access": ""}}, {"type": "Feature", "geometry": {"type": "Point", "coordinates": [126.9537674, 37.4543559]}, "properties": {"osm_id": 4564999929, "entrance": "yes", "level": "", "name": "", "ref": "", "door": "", "wheelchair": "yes", "access": ""}}, {"type": "Feature", "geometry": {"type": "Point", "coordinates": [126.9535962, 37.4541133]}, "properties": {"osm_id": 4564999930, "entrance": "yes", "level": "", "name": "", "ref": "", "door": "", "wheelchair": "yes", "access": ""}}, {"type": "Feature", "geometry": {"type": "Point", "coordinates": [126.9533739, 37.4542817]}, "properties": {"osm_id": 4564999931, "entrance": "yes", "level": "", "name": "", "ref": "", "door": "", "wheelchair": "no", "access": ""}}, {"type": "Feature", "geometry": {"type": "Point", "coordinates": [126.9526571, 37.4540599]}, "properties": {"osm_id": 4564999932, "entrance": "yes", "level": "", "name": "", "ref": "", "door": "", "wheelchair": "no", "access": ""}}, {"type": "Feature", "geometry": {"type": "Point", "coordinates": [126.9505546, 37.4535594]}, "properties": {"osm_id": 4564999933, "entrance": "yes", "level": "", "name": "", "ref": "", "door": "", "wheelchair": "no", "access": ""}}, {"type": "Feature", "geometry": {"type": "Point", "coordinates": [126.9540041, 37.4622251]}, "properties": {"osm_id": 4566528829, "entrance": "yes", "level": "", "name": "", "ref": "", "door": "", "wheelchair": "no", "access": ""}}, {"type": "Feature", "geometry": {"type": "Point", "coordinates": [126.9542812, 37.4622902]}, "properties": {"osm_id": 4566528830, "entrance": "yes", "level": "", "name": "", "ref": "", "door": "", "wheelchair": "yes", "access": ""}}, {"type": "Feature", "geometry": {"type": "Point", "coordinates": [126.9543568, 37.4620156]}, "properties": {"osm_id": 4566528831, "entrance": "yes", "level": "", "name": "", "ref": "", "door": "", "wheelchair": "no", "access": ""}}, {"type": "Feature", "geometry": {"type": "Point", "coordinates": [126.9480468, 37.4584444]}, "properties": {"osm_id": 4566528832, "entrance": "yes", "level": "", "name": "", "ref": "", "door": "", "wheelchair": "no", "access": ""}}, {"type": "Feature", "geometry": {"type": "Point", "coordinates": [126.9481163, 37.4581925]}, "properties": {"osm_id": 4566528833, "entrance": "yes", "level": "", "name": "", "ref": "", "door": "", "wheelchair": "no", "access": ""}}, {"type": "Feature", "geometry": {"type": "Point", "coordinates": [126.9486788, 37.4584023]}, "properties": {"osm_id": 4566528834, "entrance": "yes", "level": "", "name": "", "ref": "", "door": "", "wheelchair": "no", "access": ""}}, {"type": "Feature", "geometry": {"type": "Point", "coordinates": [126.9487935, 37.4581368]}, "properties": {"osm_id": 4566528835, "entrance": "yes", "level": "", "name": "", "ref": "", "door": "", "wheelchair": "no", "access": ""}}, {"type": "Feature", "geometry": {"type": "Point", "coordinates": [126.9481261, 37.4578664]}, "properties": {"osm_id": 4566528836, "entrance": "yes", "level": "", "name": "", "ref": "", "door": "", "wheelchair": "no", "access": ""}}, {"type": "Feature", "geometry": {"type": "Point", "coordinates": [126.9482702, 37.4573373]}, "properties": {"osm_id": 4566528837, "entrance": "yes", "level": "", "name": "", "ref": "", "door": "", "wheelchair": "no", "access": ""}}, {"type": "Feature", "geometry": {"type": "Point", "coordinates": [126.9489461, 37.457705]}, "properties": {"osm_id": 4566528838, "entrance": "yes", "level": "", "name": "", "ref": "", "door": "", "wheelchair": "yes", "access": ""}}, {"type": "Feature", "geometry": {"type": "Point", "coordinates": [126.948995, 37.4573049]}, "properties": {"osm_id": 4566528839, "entrance": "yes", "level": "", "name": "", "ref": "", "door": "", "wheelchair": "yes", "access": ""}}, {"type": "Feature", "geometry": {"type": "Point", "coordinates": [126.9506965, 37.4534207]}, "properties": {"osm_id": 4566997720, "entrance": "yes", "level": "", "name": "", "ref": "", "door": "", "wheelchair": "yes", "access": ""}}, {"type": "Feature", "geometry": {"type": "Point", "coordinates": [126.9522043, 37.4487903]}, "properties": {"osm_id": 4748070026, "entrance": "yes", "level": "", "name": "", "ref": "", "door": "", "wheelchair": "", "access": ""}}, {"type": "Feature", "geometry": {"type": "Point", "coordinates": [126.9524384, 37.4490285]}, "properties": {"osm_id": 4748070027, "entrance": "yes", "level": "", "name": "", "ref": "", "door": "", "wheelchair": "", "access": ""}}, {"type": "Feature", "geometry": {"type": "Point", "coordinates": [126.951136, 37.4485803]}, "properties": {"osm_id": 4749960514, "entrance": "yes", "level": "", "name": "", "ref": "", "door": "", "wheelchair": "", "access": ""}}, {"type": "Feature", "geometry": {"type": "Point", "coordinates": [126.9524317, 37.4504835]}, "properties": {"osm_id": 4749980473, "entrance": "yes", "level": "", "name": "", "ref": "", "door": "", "wheelchair": "", "access": ""}}, {"type": "Feature", "geometry": {"type": "Point", "coordinates": [126.9524049, 37.4492618]}, "properties": {"osm_id": 4749980474, "entrance": "yes", "level": "", "name": "", "ref": "", "door": "", "wheelchair": "", "access": ""}}, {"type": "Feature", "geometry": {"type": "Point", "coordinates": [126.9522091, 37.4494785]}, "properties": {"osm_id": 4749980475, "entrance": "yes", "level": "", "name": "", "ref": "", "door": "", "wheelchair": "", "access": ""}}, {"type": "Feature", "geometry": {"type": "Point", "coordinates": [126.9522241, 37.4501791]}, "properties": {"osm_id": 4749980478, "entrance": "yes", "level": "", "name": "", "ref": "", "door": "", "wheelchair": "", "access": ""}}, {"type": "Feature", "geometry": {"type": "Point", "coordinates": [126.9524447, 37.4484724]}, "properties": {"osm_id": 4750534650, "entrance": "yes", "level": "", "name": "", "ref": "", "door": "", "wheelchair": "", "access": ""}}, {"type": "Feature", "geometry": {"type": "Point", "coordinates": [126.9524484, 37.4483624]}, "properties": {"osm_id": 4750534651, "entrance": "yes", "level": "", "name": "", "ref": "", "door": "", "wheelchair": "", "access": ""}}, {"type": "Feature", "geometry": {"type": "Point", "coordinates": [126.957344, 37.460711]}, "properties": {"osm_id": 4750650869, "entrance": "yes", "level": "", "name": "", "ref": "", "door": "", "wheelchair": "", "access": ""}}, {"type": "Feature", "geometry": {"type": "Point", "coordinates": [126.9543671, 37.4635522]}, "properties": {"osm_id": 4752485021, "entrance": "yes", "level": "", "name": "", "ref": "", "door": "", "wheelchair": "yes", "access": ""}}, {"type": "Feature", "geometry": {"type": "Point", "coordinates": [126.9583764, 37.4620761]}, "properties": {"osm_id": 4752760186, "entrance": "yes", "level": "", "name": "", "ref": "", "door": "", "wheelchair": "", "access": ""}}, {"type": "Feature", "geometry": {"type": "Point", "coordinates": [126.9581301, 37.4624977]}, "properties": {"osm_id": 4752760187, "entrance": "yes", "level": "", "name": "", "ref": "", "door": "", "wheelchair": "", "access": ""}}, {"type": "Feature", "geometry": {"type": "Point", "coordinates": [126.9579555, 37.4625387]}, "properties": {"osm_id": 4752760188, "entrance": "yes", "level": "", "name": "", "ref": "", "door": "", "wheelchair": "", "access": ""}}, {"type": "Feature", "geometry": {"type": "Point", "coordinates": [126.9478065, 37.4673031]}, "properties": {"osm_id": 5742447771, "entrance": "yes", "level": "", "name": "", "ref": "", "door": "", "wheelchair": "", "access": ""}}, {"type": "Feature", "geometry": {"type": "Point", "coordinates": [126.9463203, 37.4681965]}, "properties": {"osm_id": 5750035891, "entrance": "yes", "level": "", "name": "", "ref": "", "door": "", "wheelchair": "", "access": ""}}, {"type": "Feature", "geometry": {"type": "Point", "coordinates": [126.952217, 37.4564789]}, "properties": {"osm_id": 8298752817, "entrance": "yes", "level": "", "name": "", "ref": "", "door": "", "wheelchair": "", "access": ""}}, {"type": "Feature", "geometry": {"type": "Point", "coordinates": [126.9521076, 37.4570418]}, "properties": {"osm_id": 8298752917, "entrance": "yes", "level": "", "name": "", "ref": "", "door": "", "wheelchair": "", "access": ""}}, {"type": "Feature", "geometry": {"type": "Point", "coordinates": [126.9510776, 37.4554112]}, "properties": {"osm_id": 13617795535, "entrance": "yes", "level": "", "name": "", "ref": "", "door": "", "wheelchair": "", "access": ""}}, {"type": "Feature", "geometry": {"type": "Point", "coordinates": [126.9527642, 37.4559026]}, "properties": {"osm_id": 13617795539, "entrance": "yes", "level": "", "name": "", "ref": "", "door": "", "wheelchair": "yes", "access": ""}}, {"type": "Feature", "geometry": {"type": "Point", "coordinates": [126.9503199, 37.457782]}, "properties": {"osm_id": 13617883876, "entrance": "yes", "level": "", "name": "", "ref": "", "door": "", "wheelchair": "yes", "access": ""}}, {"type": "Feature", "geometry": {"type": "Point", "coordinates": [126.9513371, 37.4561672]}, "properties": {"osm_id": 13617883882, "entrance": "yes", "level": "", "name": "", "ref": "", "door": "", "wheelchair": "", "access": ""}}, {"type": "Feature", "geometry": {"type": "Point", "coordinates": [126.951668, 37.4558691]}, "properties": {"osm_id": 13617883883, "entrance": "yes", "level": "", "name": "", "ref": "", "door": "", "wheelchair": "", "access": ""}}, {"type": "Feature", "geometry": {"type": "Point", "coordinates": [126.9508391, 37.4632472]}, "properties": {"osm_id": 14007509789, "entrance": "yes", "level": "", "name": "", "ref": "", "door": "", "wheelchair": "", "access": ""}}]}